STARLINK-34448          
1 64291U 25123A   26068.72548517  .00001636  00000+0  14490-3 0  9992
2 64291  70.0023 194.3817 0003003 267.7834  92.2981 14.98329161 42845
METHANESAT              
1 59101U 24043D   26068.92538335  .00003748  00000+0  32562-3 0  9991
2 59101  97.8288 199.6058 0010053 350.2517   9.8508 14.97588653109792
